{
  "type": "FeatureCollection",
  "features": [
    {
      "type": "Feature",
      "properties": {
        "norad_id": 41581,
        "name": "INTELSAT 31 (IS-31)",
        "group": "intelsat",
        "lat": 0.023484284891061316,
        "lon": 65.68422407667477,
        "alt_km": 35796.392409623004,
        "timestamp": "2025-12-07T05:38:09.575981+00:00",
        "meta_object_name": "INTELSAT 31 (IS-31)",
        "meta_object_id": "2016-035A",
        "meta_epoch": "2025-12-06T10:58:11.822592",
        "meta_mean_motion": 1.00259048,
        "meta_eccentricity": 0.00021722,
        "meta_inclination": 0.0205,
        "meta_ra_of_asc_node": 270.4524,
        "meta_arg_of_pericenter": 292.1707,
        "meta_mean_anomaly": 302.3653,
        "meta_ephemeris_type": 0,
        "meta_classification_type": "U",
        "meta_norad_cat_id": 41581,
        "meta_element_set_no": 999,
        "meta_rev_at_epoch": 3475,
        "meta_bstar": 0,
        "meta_mean_motion_dot": -1.42e-06,
        "meta_mean_motion_ddot": 0,
        "tle_line1": "1 41581U 16035A   25340.45708128 -.00000142  00000+0  00000+0 0  9999",
        "tle_line2": "2 41581   0.0205 270.4524 0002172 292.1707 302.3653  1.00259048 34752"
      },
      "geometry": {
        "type": "Point",
        "coordinates": [
          65.68422407667477,
          0.023484284891061316
        ]
      }
    },
    {
      "type": "Feature",
      "properties": {
        "norad_id": 41747,
        "name": "INTELSAT 36 (IS-36)",
        "group": "intelsat",
        "lat": -0.029954056997859746,
        "lon": -130.7279344482913,
        "alt_km": 35786.09501520016,
        "timestamp": "2025-12-07T05:38:09.575993+00:00",
        "meta_object_name": "INTELSAT 36 (IS-36)",
        "meta_object_id": "2016-053A",
        "meta_epoch": "2025-12-06T10:33:59.887008",
        "meta_mean_motion": 1.00270069,
        "meta_eccentricity": 0.00015206,
        "meta_inclination": 0.0114,
        "meta_ra_of_asc_node": 358.7384,
        "meta_arg_of_pericenter": 316.7777,
        "meta_mean_anomaly": 346.9633,
        "meta_ephemeris_type": 0,
        "meta_classification_type": "U",
        "meta_norad_cat_id": 41747,
        "meta_element_set_no": 999,
        "meta_rev_at_epoch": 3401,
        "meta_bstar": 0,
        "meta_mean_motion_dot": -1.7e-07,
        "meta_mean_motion_ddot": 0,
        "tle_line1": "1 41747U 16053A   25340.44027647 -.00000017  00000+0  00000+0 0  9993",
        "tle_line2": "2 41747   0.0114 358.7384 0001520 316.7777 346.9633  1.00270069 34012"
      },
      "geometry": {
        "type": "Point",
        "coordinates": [
          -130.7279344482913,
          -0.029954056997859746
        ]
      }
    },
    {
      "type": "Feature",
      "properties": {
        "norad_id": 41945,
        "name": "INTELSAT 32E (IS-32E)",
        "group": "intelsat",
        "lat": 0.03181441237526757,
        "lon": 117.60900345109202,
        "alt_km": 35787.35708535947,
        "timestamp": "2025-12-07T05:38:09.576005+00:00",
        "meta_object_name": "INTELSAT 32E (IS-32E)",
        "meta_object_id": "2017-007B",
        "meta_epoch": "2025-12-06T11:44:53.098080",
        "meta_mean_motion": 1.0026955,
        "meta_eccentricity": 1.485e-05,
        "meta_inclination": 0.0305,
        "meta_ra_of_asc_node": 68.4783,
        "meta_arg_of_pericenter": 205.7455,
        "meta_mean_anomaly": 294.3476,
        "meta_ephemeris_type": 0,
        "meta_classification_type": "U",
        "meta_norad_cat_id": 41945,
        "meta_element_set_no": 999,
        "meta_rev_at_epoch": 3229,
        "meta_bstar": 0,
        "meta_mean_motion_dot": -2.62e-06,
        "meta_mean_motion_ddot": 0,
        "tle_line1": "1 41945U 17007B   25340.48950345 -.00000262  00000+0  00000+0 0  9999",
        "tle_line2": "2 41945   0.0305  68.4783 0000148 205.7455 294.3476  1.00269550 32299"
      },
      "geometry": {
        "type": "Point",
        "coordinates": [
          117.60900345109202,
          0.03181441237526757
        ]
      }
    },
    {
      "type": "Feature",
      "properties": {
        "norad_id": 42818,
        "name": "INTELSAT 35E (IS-35E)",
        "group": "intelsat",
        "lat": 0.025309456191342363,
        "lon": 126.28486750358086,
        "alt_km": 35793.67580462493,
        "timestamp": "2025-12-07T05:38:09.576017+00:00",
        "meta_object_name": "INTELSAT 35E (IS-35E)",
        "meta_object_id": "2017-041A",
        "meta_epoch": "2025-12-06T10:04:40.196352",
        "meta_mean_motion": 1.00270131,
        "meta_eccentricity": 0.00024143,
        "meta_inclination": 0.0158,
        "meta_ra_of_asc_node": 350.803,
        "meta_arg_of_pericenter": 269.1644,
        "meta_mean_anomaly": 292.1759,
        "meta_ephemeris_type": 0,
        "meta_classification_type": "U",
        "meta_norad_cat_id": 42818,
        "meta_element_set_no": 999,
        "meta_rev_at_epoch": 3088,
        "meta_bstar": 0,
        "meta_mean_motion_dot": -2.31e-06,
        "meta_mean_motion_ddot": 0,
        "tle_line1": "1 42818U 17041A   25340.41990968 -.00000231  00000+0  00000+0 0  9991",
        "tle_line2": "2 42818   0.0158 350.8030 0002414 269.1644 292.1759  1.00270131 30880"
      },
      "geometry": {
        "type": "Point",
        "coordinates": [
          126.28486750358086,
          0.025309456191342363
        ]
      }
    },
    {
      "type": "Feature",
      "properties": {
        "norad_id": 42950,
        "name": "INTELSAT 37E (IS-37E)",
        "group": "intelsat",
        "lat": 0.00989116630554427,
        "lon": 142.75716996082312,
        "alt_km": 35791.329666352656,
        "timestamp": "2025-12-07T05:38:09.576029+00:00",
        "meta_object_name": "INTELSAT 37E (IS-37E)",
        "meta_object_id": "2017-059A",
        "meta_epoch": "2025-12-06T10:09:17.254368",
        "meta_mean_motion": 1.00270742,
        "meta_eccentricity": 0.00034807,
        "meta_inclination": 0.0169,
        "meta_ra_of_asc_node": 336.2223,
        "meta_arg_of_pericenter": 276.0192,
        "meta_mean_anomaly": 317.5473,
        "meta_ephemeris_type": 0,
        "meta_classification_type": "U",
        "meta_norad_cat_id": 42950,
        "meta_element_set_no": 999,
        "meta_rev_at_epoch": 3013,
        "meta_bstar": 0,
        "meta_mean_motion_dot": -1.33e-06,
        "meta_mean_motion_ddot": 0,
        "tle_line1": "1 42950U 17059A   25340.42311637 -.00000133  00000+0  00000+0 0  9999",
        "tle_line2": "2 42950   0.0169 336.2223 0003480 276.0192 317.5473  1.00270742 30131"
      },
      "geometry": {
        "type": "Point",
        "coordinates": [
          142.75716996082312,
          0.00989116630554427
        ]
      }
    },
    {
      "type": "Feature",
      "properties": {
        "norad_id": 43632,
        "name": "AZERSPACE 2 (IS-38)",
        "group": "intelsat",
        "lat": -0.016798692355364166,
        "lon": -154.1106833379185,
        "alt_km": 35782.123349168534,
        "timestamp": "2025-12-07T05:38:09.576041+00:00",
        "meta_object_name": "AZERSPACE 2 (IS-38)",
        "meta_object_id": "2018-074A",
        "meta_epoch": "2025-12-06T05:46:38.731584",
        "meta_mean_motion": 1.0027024,
        "meta_eccentricity": 0.00016364,
        "meta_inclination": 0.0015,
        "meta_ra_of_asc_node": 351.9319,
        "meta_arg_of_pericenter": 265.925,
        "meta_mean_anomaly": 309.2023,
        "meta_ephemeris_type": 0,
        "meta_classification_type": "U",
        "meta_norad_cat_id": 43632,
        "meta_element_set_no": 999,
        "meta_rev_at_epoch": 2651,
        "meta_bstar": 0,
        "meta_mean_motion_dot": 1.45e-06,
        "meta_mean_motion_ddot": 0,
        "tle_line1": "1 43632U 18074A   25340.24072606  .00000145  00000+0  00000+0 0  9997",
        "tle_line2": "2 43632   0.0015 351.9319 0001636 265.9250 309.2023  1.00270240 26511"
      },
      "geometry": {
        "type": "Point",
        "coordinates": [
          -154.1106833379185,
          -0.016798692355364166
        ]
      }
    },
    {
      "type": "Feature",
      "properties": {
        "norad_id": 43633,
        "name": "HORIZONS-3E",
        "group": "intelsat",
        "lat": 0.012507282420183962,
        "lon": -30.180632819594337,
        "alt_km": 35783.474516229595,
        "timestamp": "2025-12-07T05:38:09.576052+00:00",
        "meta_object_name": "HORIZONS-3E",
        "meta_object_id": "2018-074B",
        "meta_epoch": "2025-12-06T04:02:38.488128",
        "meta_mean_motion": 1.00269385,
        "meta_eccentricity": 0.00012044,
        "meta_inclination": 0.0412,
        "meta_ra_of_asc_node": 188.1076,
        "meta_arg_of_pericenter": 91.4759,
        "meta_mean_anomaly": 25.3122,
        "meta_ephemeris_type": 0,
        "meta_classification_type": "U",
        "meta_norad_cat_id": 43633,
        "meta_element_set_no": 999,
        "meta_rev_at_epoch": 2640,
        "meta_bstar": 0,
        "meta_mean_motion_dot": -2.2e-07,
        "meta_mean_motion_ddot": 0,
        "tle_line1": "1 43633U 18074B   25340.16850102 -.00000022  00000+0  00000+0 0  9999",
        "tle_line2": "2 43633   0.0412 188.1076 0001204  91.4759  25.3122  1.00269385 26402"
      },
      "geometry": {
        "type": "Point",
        "coordinates": [
          -30.180632819594337,
          0.012507282420183962
        ]
      }
    }
  ]
}